SEEDS II (CO-66)        
1 32791U 08021J   26068.92109284  .00023758  00000+0  84213-3 0  9995
2 32791  97.7519  62.3611 0001448 359.2618   0.8619 15.29097235972108
STARLINK-36515          
1 67430U 26005AC  26067.57094610  .00039239  00000+0  14270-2 0  9997
2 67430  42.9999 244.4472 0001614 259.2943 100.7727 15.27599080  8511
